[{"OBJECT_NAME":"SDA_1674","OBJECT_ID":"2025-230L","EPOCH":"2026-03-09T17:39:14.953536","MEAN_MOTION":13.85421025,"ECCENTRICITY":0.00045935,"INCLINATION":81.3001,"RA_OF_ASC_NODE":303.8213,"ARG_OF_PERICENTER":113.5479,"MEAN_ANOMALY":246.6161,"EPHEMERIS_TYPE":0,"CLASSIFICATION_TYPE":"U","NORAD_CAT_ID":65984,"ELEMENT_SET_NO":999,"REV_AT_EPOCH":2005,"BSTAR":0.00028416236,"MEAN_MOTION_DOT":3.35e-6,"MEAN_MOTION_DDOT":0},{"OBJECT_NAME":"FENGYUN 1C DEB","OBJECT_ID":"1999-025WQ","EPOCH":"2026-03-09T22:51:00.154368","MEAN_MOTION":14.11890804,"ECCENTRICITY":0.01288849,"INCLINATION":98.7912,"RA_OF_ASC_NODE":117.0711,"ARG_OF_PERICENTER":141.1149,"MEAN_ANOMALY":343.6481,"EPHEMERIS_TYPE":0,"CLASSIFICATION_TYPE":"U","NORAD_CAT_ID":30231,"ELEMENT_SET_NO":999,"REV_AT_EPOCH":98250,"BSTAR":0.0007042816,"MEAN_MOTION_DOT":1.349e-5,"MEAN_MOTION_DDOT":0}]
